{
"type": "FeatureCollection",
"name": "darmstadt_rheinstrasse_arterial_pain_points",
"crs": { "type": "name", "properties": { "name": "urn:ogc:def:crs:OGC:1.3:CRS84" } },
"features": [
{ "type": "Feature", "properties": { "u": 334212218, "v": 447903, "key": 0, "osmid": [ 1103575783, 1103575784, 1103575785, 6912972, 1429406544 ], "name": "Hügelstraße", "highway": "primary", "cycleway": null, "length": 165.67739343893132, "pain_score": 497.03218031679398 }, "geometry": { "type": "LineString", "coordinates": [ [ 8.6435506, 49.8680316 ], [ 8.6438632, 49.8681222 ], [ 8.6440326, 49.8681568 ], [ 8.6441971, 49.8681903 ], [ 8.6442476, 49.8681974 ], [ 8.6444644, 49.8682281 ], [ 8.6448478, 49.8682775 ], [ 8.6448694, 49.86828 ], [ 8.6452369, 49.8683289 ], [ 8.645355, 49.8683447 ], [ 8.6455716, 49.8683735 ], [ 8.6456616, 49.868385 ], [ 8.6457822, 49.8684016 ] ] } },
{ "type": "Feature", "properties": { "u": 447903, "v": 334212218, "key": 0, "osmid": [ 1103575783, 1103575784, 1103575785, 6912972, 1429406544 ], "name": "Hügelstraße", "highway": "primary", "cycleway": null, "length": 165.67739343893126, "pain_score": 497.03218031679376 }, "geometry": { "type": "LineString", "coordinates": [ [ 8.6457822, 49.8684016 ], [ 8.6456616, 49.868385 ], [ 8.6455716, 49.8683735 ], [ 8.645355, 49.8683447 ], [ 8.6452369, 49.8683289 ], [ 8.6448694, 49.86828 ], [ 8.6448478, 49.8682775 ], [ 8.6444644, 49.8682281 ], [ 8.6442476, 49.8681974 ], [ 8.6441971, 49.8681903 ], [ 8.6440326, 49.8681568 ], [ 8.6438632, 49.8681222 ], [ 8.6435506, 49.8680316 ] ] } },
{ "type": "Feature", "properties": { "u": 586242, "v": 447903, "key": 0, "osmid": "54899797", "name": "Neckarstraße", "highway": "primary", "cycleway": null, "length": 118.96671584621828, "pain_score": 356.90014753865483 }, "geometry": { "type": "LineString", "coordinates": [ [ 8.6454566, 49.8694506 ], [ 8.6454974, 49.8692939 ], [ 8.6457184, 49.8686123 ], [ 8.6457281, 49.8685796 ], [ 8.6457822, 49.8684016 ] ] } },
{ "type": "Feature", "properties": { "u": 12635604, "v": 586242, "key": 0, "osmid": "54899788", "name": "Neckarstraße", "highway": "primary", "cycleway": null, "length": 110.72475560329077, "pain_score": 332.17426680987234 }, "geometry": { "type": "LineString", "coordinates": [ [ 8.6451137, 49.8704209 ], [ 8.6454201, 49.8696121 ], [ 8.6454293, 49.8695753 ], [ 8.6454566, 49.8694506 ] ] } },
{ "type": "Feature", "properties": { "u": 608057, "v": 356292222, "key": 0, "osmid": [ 381976297, 1103575781, 1103575782 ], "name": "Hügelstraße", "highway": "primary", "cycleway": null, "length": 106.57810051672655, "pain_score": 319.73430155017968 }, "geometry": { "type": "LineString", "coordinates": [ [ 8.6479251, 49.8687197 ], [ 8.6476564, 49.8686798 ], [ 8.6475676, 49.8686666 ], [ 8.6474771, 49.8686532 ], [ 8.6470538, 49.8685907 ], [ 8.6464768, 49.8685023 ] ] } },
{ "type": "Feature", "properties": { "u": 356292222, "v": 608057, "key": 0, "osmid": [ 381976297, 1103575781, 1103575782 ], "name": "Hügelstraße", "highway": "primary", "cycleway": null, "length": 106.57810051672655, "pain_score": 319.73430155017968 }, "geometry": { "type": "LineString", "coordinates": [ [ 8.6464768, 49.8685023 ], [ 8.6470538, 49.8685907 ], [ 8.6474771, 49.8686532 ], [ 8.6475676, 49.8686666 ], [ 8.6476564, 49.8686798 ], [ 8.6479251, 49.8687197 ] ] } },
{ "type": "Feature", "properties": { "u": 531705, "v": 608030, "key": 0, "osmid": [ 863833538, 148749644 ], "name": "Neckarstraße", "highway": "secondary", "cycleway": null, "length": 118.782693891292, "pain_score": 237.565387782584 }, "geometry": { "type": "LineString", "coordinates": [ [ 8.6460338, 49.8684372 ], [ 8.6459755, 49.868609 ], [ 8.6458591, 49.8689436 ], [ 8.6458498, 49.8689719 ], [ 8.6457481, 49.8692911 ], [ 8.6457383, 49.8693246 ], [ 8.6456845, 49.8694814 ] ] } },
{ "type": "Feature", "properties": { "u": 608030, "v": 608049, "key": 0, "osmid": "54899793", "name": "Neckarstraße", "highway": "secondary", "cycleway": null, "length": 111.07634611368935, "pain_score": 222.15269222737871 }, "geometry": { "type": "LineString", "coordinates": [ [ 8.6456845, 49.8694814 ], [ 8.6456468, 49.8696073 ], [ 8.645335, 49.8704545 ] ] } },
{ "type": "Feature", "properties": { "u": 531705, "v": 356292222, "key": 0, "osmid": "1429096407", "name": "Hügelstraße", "highway": "primary", "cycleway": null, "length": 32.566833935135605, "pain_score": 97.700501805406816 }, "geometry": { "type": "LineString", "coordinates": [ [ 8.6460338, 49.8684372 ], [ 8.6460717, 49.8684428 ], [ 8.6461496, 49.8684552 ], [ 8.64621, 49.8684631 ], [ 8.6464768, 49.8685023 ] ] } },
{ "type": "Feature", "properties": { "u": 356292222, "v": 531705, "key": 0, "osmid": "1429096407", "name": "Hügelstraße", "highway": "primary", "cycleway": null, "length": 32.566833935135605, "pain_score": 97.700501805406816 }, "geometry": { "type": "LineString", "coordinates": [ [ 8.6464768, 49.8685023 ], [ 8.64621, 49.8684631 ], [ 8.6461496, 49.8684552 ], [ 8.6460717, 49.8684428 ], [ 8.6460338, 49.8684372 ] ] } }
]
}
