{
"type": "FeatureCollection",
"name": "darmstadt_rheinstrasse_arterial",
"crs": { "type": "name", "properties": { "name": "urn:ogc:def:crs:OGC:1.3:CRS84" } },
"features": [
{ "type": "Feature", "properties": { "u": 447903, "v": 531705, "key": 0, "osmid": "6913118", "highway": "primary", "maxspeed": "50", "name": "Hügelstraße", "oneway": false, "reversed": "False", "length": 18.46204784246714, "lanes": null, "width": null, "ref": null, "highway_raw": "primary", "cycleway_raw": null, "cycleway": null, "unprotected": true }, "geometry": { "type": "LineString", "coordinates": [ [ 8.6457822, 49.8684016 ], [ 8.6458794, 49.8684157 ], [ 8.6459394, 49.8684244 ], [ 8.6460338, 49.8684372 ] ] } },
{ "type": "Feature", "properties": { "u": 447903, "v": 334212218, "key": 0, "osmid": [ 1103575783, 1103575784, 1103575785, 6912972, 1429406544 ], "highway": "primary", "maxspeed": null, "name": "Hügelstraße", "oneway": false, "reversed": "False", "length": 165.67739343893126, "lanes": [ "4", "2" ], "width": [ "12.5", "13.5", "7" ], "ref": null, "highway_raw": "primary", "cycleway_raw": null, "cycleway": null, "unprotected": true }, "geometry": { "type": "LineString", "coordinates": [ [ 8.6457822, 49.8684016 ], [ 8.6456616, 49.868385 ], [ 8.6455716, 49.8683735 ], [ 8.645355, 49.8683447 ], [ 8.6452369, 49.8683289 ], [ 8.6448694, 49.86828 ], [ 8.6448478, 49.8682775 ], [ 8.6444644, 49.8682281 ], [ 8.6442476, 49.8681974 ], [ 8.6441971, 49.8681903 ], [ 8.6440326, 49.8681568 ], [ 8.6438632, 49.8681222 ], [ 8.6435506, 49.8680316 ] ] } },
{ "type": "Feature", "properties": { "u": 531705, "v": 447903, "key": 0, "osmid": "6913118", "highway": "primary", "maxspeed": "50", "name": "Hügelstraße", "oneway": false, "reversed": "True", "length": 18.46204784246714, "lanes": null, "width": null, "ref": null, "highway_raw": "primary", "cycleway_raw": null, "cycleway": null, "unprotected": true }, "geometry": { "type": "LineString", "coordinates": [ [ 8.6460338, 49.8684372 ], [ 8.6459394, 49.8684244 ], [ 8.6458794, 49.8684157 ], [ 8.6457822, 49.8684016 ] ] } },
{ "type": "Feature", "properties": { "u": 531705, "v": 608030, "key": 0, "osmid": [ 863833538, 148749644 ], "highway": "secondary", "maxspeed": "50", "name": "Neckarstraße", "oneway": true, "reversed": "False", "length": 118.782693891292, "lanes": [ "1", "3" ], "width": [ "7", "6.5" ], "ref": "B 3", "highway_raw": "secondary", "cycleway_raw": null, "cycleway": null, "unprotected": true }, "geometry": { "type": "LineString", "coordinates": [ [ 8.6460338, 49.8684372 ], [ 8.6459755, 49.868609 ], [ 8.6458591, 49.8689436 ], [ 8.6458498, 49.8689719 ], [ 8.6457481, 49.8692911 ], [ 8.6457383, 49.8693246 ], [ 8.6456845, 49.8694814 ] ] } },
{ "type": "Feature", "properties": { "u": 531705, "v": 356292222, "key": 0, "osmid": "1429096407", "highway": "primary", "maxspeed": "50", "name": "Hügelstraße", "oneway": false, "reversed": "False", "length": 32.566833935135605, "lanes": "3", "width": null, "ref": null, "highway_raw": "primary", "cycleway_raw": null, "cycleway": null, "unprotected": true }, "geometry": { "type": "LineString", "coordinates": [ [ 8.6460338, 49.8684372 ], [ 8.6460717, 49.8684428 ], [ 8.6461496, 49.8684552 ], [ 8.64621, 49.8684631 ], [ 8.6464768, 49.8685023 ] ] } },
{ "type": "Feature", "properties": { "u": 586242, "v": 447903, "key": 0, "osmid": "54899797", "highway": "primary", "maxspeed": "50", "name": "Neckarstraße", "oneway": true, "reversed": "False", "length": 118.96671584621828, "lanes": "2", "width": null, "ref": "B 3", "highway_raw": "primary", "cycleway_raw": null, "cycleway": null, "unprotected": true }, "geometry": { "type": "LineString", "coordinates": [ [ 8.6454566, 49.8694506 ], [ 8.6454974, 49.8692939 ], [ 8.6457184, 49.8686123 ], [ 8.6457281, 49.8685796 ], [ 8.6457822, 49.8684016 ] ] } },
{ "type": "Feature", "properties": { "u": 586242, "v": 608030, "key": 0, "osmid": "54899801", "highway": "residential", "maxspeed": "50", "name": "Elisabethenstraße", "oneway": false, "reversed": "False", "length": 16.688496551315954, "lanes": null, "width": null, "ref": null, "highway_raw": "residential", "cycleway_raw": null, "cycleway": null, "unprotected": false }, "geometry": { "type": "LineString", "coordinates": [ [ 8.6454566, 49.8694506 ], [ 8.6455418, 49.8694621 ], [ 8.645606, 49.8694708 ], [ 8.6456845, 49.8694814 ] ] } },
{ "type": "Feature", "properties": { "u": 586242, "v": 586245, "key": 0, "osmid": [ 1429406545, 778002721 ], "highway": "residential", "maxspeed": "30", "name": "Elisabethenstraße", "oneway": false, "reversed": "True", "length": 168.74830100802265, "lanes": null, "width": null, "ref": null, "highway_raw": "residential", "cycleway_raw": null, "cycleway": null, "unprotected": false }, "geometry": { "type": "LineString", "coordinates": [ [ 8.6454566, 49.8694506 ], [ 8.6453609, 49.8694371 ], [ 8.6452477, 49.8694224 ], [ 8.6446441, 49.8693411 ], [ 8.6442036, 49.8692818 ], [ 8.6441809, 49.8692788 ], [ 8.6440743, 49.8692644 ], [ 8.6439821, 49.869252 ], [ 8.6431518, 49.8691403 ] ] } },
{ "type": "Feature", "properties": { "u": 586245, "v": 334212218, "key": 0, "osmid": [ 1031109963, 148701582 ], "highway": "residential", "maxspeed": "30", "name": "Landgraf-Philipps-Anlage", "oneway": false, "reversed": "False", "length": 126.55205363963212, "lanes": null, "width": [ "8.7", "6.5" ], "ref": null, "highway_raw": "residential", "cycleway_raw": null, "cycleway": null, "unprotected": false }, "geometry": { "type": "LineString", "coordinates": [ [ 8.6431518, 49.8691403 ], [ 8.643184, 49.869053 ], [ 8.6434039, 49.8684403 ], [ 8.6435127, 49.8681373 ], [ 8.6435506, 49.8680316 ] ] } },
{ "type": "Feature", "properties": { "u": 586245, "v": 586242, "key": 0, "osmid": [ 1429406545, 778002721 ], "highway": "residential", "maxspeed": "30", "name": "Elisabethenstraße", "oneway": false, "reversed": "False", "length": 168.74830100802265, "lanes": null, "width": null, "ref": null, "highway_raw": "residential", "cycleway_raw": null, "cycleway": null, "unprotected": false }, "geometry": { "type": "LineString", "coordinates": [ [ 8.6431518, 49.8691403 ], [ 8.6439821, 49.869252 ], [ 8.6440743, 49.8692644 ], [ 8.6441809, 49.8692788 ], [ 8.6442036, 49.8692818 ], [ 8.6446441, 49.8693411 ], [ 8.6452477, 49.8694224 ], [ 8.6453609, 49.8694371 ], [ 8.6454566, 49.8694506 ] ] } },
{ "type": "Feature", "properties": { "u": 608030, "v": 608049, "key": 0, "osmid": "54899793", "highway": "secondary", "maxspeed": "50", "name": "Neckarstraße", "oneway": true, "reversed": "False", "length": 111.07634611368935, "lanes": "1", "width": "5.5", "ref": "B 3", "highway_raw": "secondary", "cycleway_raw": null, "cycleway": null, "unprotected": true }, "geometry": { "type": "LineString", "coordinates": [ [ 8.6456845, 49.8694814 ], [ 8.6456468, 49.8696073 ], [ 8.645335, 49.8704545 ] ] } },
{ "type": "Feature", "properties": { "u": 608030, "v": 586242, "key": 0, "osmid": "54899801", "highway": "residential", "maxspeed": "50", "name": "Elisabethenstraße", "oneway": false, "reversed": "True", "length": 16.688496551315954, "lanes": null, "width": null, "ref": null, "highway_raw": "residential", "cycleway_raw": null, "cycleway": null, "unprotected": false }, "geometry": { "type": "LineString", "coordinates": [ [ 8.6456845, 49.8694814 ], [ 8.645606, 49.8694708 ], [ 8.6455418, 49.8694621 ], [ 8.6454566, 49.8694506 ] ] } },
{ "type": "Feature", "properties": { "u": 608030, "v": 255302416, "key": 0, "osmid": [ 1429406546, 54899782 ], "highway": "unclassified", "maxspeed": "30", "name": "Elisabethenstraße", "oneway": false, "reversed": "False", "length": 144.46506653610089, "lanes": "2", "width": null, "ref": null, "highway_raw": "unclassified", "cycleway_raw": null, "cycleway": null, "unprotected": false }, "geometry": { "type": "LineString", "coordinates": [ [ 8.6456845, 49.8694814 ], [ 8.6457744, 49.8694934 ], [ 8.6458688, 49.8695066 ], [ 8.6459275, 49.8695147 ], [ 8.6462009, 49.8695524 ], [ 8.6468831, 49.8696465 ], [ 8.6471017, 49.8696766 ], [ 8.6472193, 49.8696928 ], [ 8.6476557, 49.869753 ] ] } },
{ "type": "Feature", "properties": { "u": 608049, "v": 608053, "key": 0, "osmid": [ 50431328, 179041226 ], "highway": "residential", "maxspeed": "30", "name": "Adelungstraße", "oneway": false, "reversed": [ false, true ], "length": 154.18752768683177, "lanes": "2", "width": null, "ref": null, "highway_raw": "residential", "cycleway_raw": null, "cycleway": null, "unprotected": false }, "geometry": { "type": "LineString", "coordinates": [ [ 8.645335, 49.8704545 ], [ 8.6453589, 49.8704582 ], [ 8.645427, 49.8704688 ], [ 8.6454785, 49.870476 ], [ 8.6458602, 49.8705293 ], [ 8.6474371, 49.8707497 ] ] } },
{ "type": "Feature", "properties": { "u": 608053, "v": 608055, "key": 0, "osmid": "4083977", "highway": "residential", "maxspeed": "30", "name": "Saalbaustraße", "oneway": true, "reversed": "False", "length": 111.6681784931928, "lanes": null, "width": null, "ref": null, "highway_raw": "residential", "cycleway_raw": null, "cycleway": null, "unprotected": false }, "geometry": { "type": "LineString", "coordinates": [ [ 8.6474371, 49.8707497 ], [ 8.6475291, 49.8704727 ], [ 8.6477404, 49.8697647 ] ] } },
{ "type": "Feature", "properties": { "u": 608053, "v": 608049, "key": 0, "osmid": [ 50431328, 179041226 ], "highway": "residential", "maxspeed": "30", "name": "Adelungstraße", "oneway": false, "reversed": [ false, true ], "length": 154.18752768683174, "lanes": "2", "width": null, "ref": null, "highway_raw": "residential", "cycleway_raw": null, "cycleway": null, "unprotected": false }, "geometry": { "type": "LineString", "coordinates": [ [ 8.6474371, 49.8707497 ], [ 8.6458602, 49.8705293 ], [ 8.6454785, 49.870476 ], [ 8.645427, 49.8704688 ], [ 8.6453589, 49.8704582 ], [ 8.645335, 49.8704545 ] ] } },
{ "type": "Feature", "properties": { "u": 608055, "v": 255302416, "key": 0, "osmid": "54899782", "highway": "unclassified", "maxspeed": "30", "name": "Elisabethenstraße", "oneway": false, "reversed": "True", "length": 6.2081495798686204, "lanes": "2", "width": null, "ref": null, "highway_raw": "unclassified", "cycleway_raw": null, "cycleway": null, "unprotected": false }, "geometry": { "type": "LineString", "coordinates": [ [ 8.6477404, 49.8697647 ], [ 8.6476557, 49.869753 ] ] } },
{ "type": "Feature", "properties": { "u": 608057, "v": 255302416, "key": 0, "osmid": "23575112", "highway": "residential", "maxspeed": "30", "name": "Saalbaustraße", "oneway": false, "reversed": "False", "length": 116.67121323870683, "lanes": null, "width": null, "ref": null, "highway_raw": "residential", "cycleway_raw": null, "cycleway": null, "unprotected": false }, "geometry": { "type": "LineString", "coordinates": [ [ 8.6479251, 49.8687197 ], [ 8.647862, 49.8689195 ], [ 8.647731, 49.8693344 ], [ 8.6477181, 49.8693765 ], [ 8.647696, 49.8694465 ], [ 8.6476557, 49.869753 ] ] } },
{ "type": "Feature", "properties": { "u": 608057, "v": 356292222, "key": 0, "osmid": [ 381976297, 1103575781, 1103575782 ], "highway": "primary", "maxspeed": "50", "name": "Hügelstraße", "oneway": false, "reversed": "True", "length": 106.57810051672655, "lanes": "4", "width": null, "ref": null, "highway_raw": "primary", "cycleway_raw": null, "cycleway": null, "unprotected": true }, "geometry": { "type": "LineString", "coordinates": [ [ 8.6479251, 49.8687197 ], [ 8.6476564, 49.8686798 ], [ 8.6475676, 49.8686666 ], [ 8.6474771, 49.8686532 ], [ 8.6470538, 49.8685907 ], [ 8.6464768, 49.8685023 ] ] } },
{ "type": "Feature", "properties": { "u": 12635604, "v": 586242, "key": 0, "osmid": "54899788", "highway": "primary", "maxspeed": "50", "name": "Neckarstraße", "oneway": true, "reversed": "False", "length": 110.72475560329077, "lanes": "1", "width": null, "ref": "B 3", "highway_raw": "primary", "cycleway_raw": null, "cycleway": null, "unprotected": true }, "geometry": { "type": "LineString", "coordinates": [ [ 8.6451137, 49.8704209 ], [ 8.6454201, 49.8696121 ], [ 8.6454293, 49.8695753 ], [ 8.6454566, 49.8694506 ] ] } },
{ "type": "Feature", "properties": { "u": 12635604, "v": 608049, "key": 0, "osmid": "178455882", "highway": "residential", "maxspeed": "50", "name": "Adelungstraße", "oneway": true, "reversed": "False", "length": 16.29411827044375, "lanes": "1", "width": null, "ref": null, "highway_raw": "residential", "cycleway_raw": null, "cycleway": null, "unprotected": false }, "geometry": { "type": "LineString", "coordinates": [ [ 8.6451137, 49.8704209 ], [ 8.6452188, 49.8704369 ], [ 8.6452703, 49.8704448 ], [ 8.645335, 49.8704545 ] ] } },
{ "type": "Feature", "properties": { "u": 255302416, "v": 608055, "key": 0, "osmid": "54899782", "highway": "unclassified", "maxspeed": "30", "name": "Elisabethenstraße", "oneway": false, "reversed": "False", "length": 6.2081495798686204, "lanes": "2", "width": null, "ref": null, "highway_raw": "unclassified", "cycleway_raw": null, "cycleway": null, "unprotected": false }, "geometry": { "type": "LineString", "coordinates": [ [ 8.6476557, 49.869753 ], [ 8.6477404, 49.8697647 ] ] } },
{ "type": "Feature", "properties": { "u": 255302416, "v": 608057, "key": 0, "osmid": "23575112", "highway": "residential", "maxspeed": "30", "name": "Saalbaustraße", "oneway": false, "reversed": "True", "length": 116.67121323870681, "lanes": null, "width": null, "ref": null, "highway_raw": "residential", "cycleway_raw": null, "cycleway": null, "unprotected": false }, "geometry": { "type": "LineString", "coordinates": [ [ 8.6476557, 49.869753 ], [ 8.647696, 49.8694465 ], [ 8.6477181, 49.8693765 ], [ 8.647731, 49.8693344 ], [ 8.647862, 49.8689195 ], [ 8.6479251, 49.8687197 ] ] } },
{ "type": "Feature", "properties": { "u": 255302416, "v": 608030, "key": 0, "osmid": [ 1429406546, 54899782 ], "highway": "unclassified", "maxspeed": "30", "name": "Elisabethenstraße", "oneway": false, "reversed": "True", "length": 144.46506653610086, "lanes": "2", "width": null, "ref": null, "highway_raw": "unclassified", "cycleway_raw": null, "cycleway": null, "unprotected": false }, "geometry": { "type": "LineString", "coordinates": [ [ 8.6476557, 49.869753 ], [ 8.6472193, 49.8696928 ], [ 8.6471017, 49.8696766 ], [ 8.6468831, 49.8696465 ], [ 8.6462009, 49.8695524 ], [ 8.6459275, 49.8695147 ], [ 8.6458688, 49.8695066 ], [ 8.6457744, 49.8694934 ], [ 8.6456845, 49.8694814 ] ] } },
{ "type": "Feature", "properties": { "u": 334212218, "v": 586245, "key": 0, "osmid": [ 1031109963, 148701582 ], "highway": "residential", "maxspeed": "30", "name": "Landgraf-Philipps-Anlage", "oneway": false, "reversed": "True", "length": 126.55205363963212, "lanes": null, "width": [ "8.7", "6.5" ], "ref": null, "highway_raw": "residential", "cycleway_raw": null, "cycleway": null, "unprotected": false }, "geometry": { "type": "LineString", "coordinates": [ [ 8.6435506, 49.8680316 ], [ 8.6435127, 49.8681373 ], [ 8.6434039, 49.8684403 ], [ 8.643184, 49.869053 ], [ 8.6431518, 49.8691403 ] ] } },
{ "type": "Feature", "properties": { "u": 334212218, "v": 447903, "key": 0, "osmid": [ 1103575783, 1103575784, 1103575785, 6912972, 1429406544 ], "highway": "primary", "maxspeed": null, "name": "Hügelstraße", "oneway": false, "reversed": "True", "length": 165.67739343893132, "lanes": [ "4", "2" ], "width": [ "12.5", "13.5", "7" ], "ref": null, "highway_raw": "primary", "cycleway_raw": null, "cycleway": null, "unprotected": true }, "geometry": { "type": "LineString", "coordinates": [ [ 8.6435506, 49.8680316 ], [ 8.6438632, 49.8681222 ], [ 8.6440326, 49.8681568 ], [ 8.6441971, 49.8681903 ], [ 8.6442476, 49.8681974 ], [ 8.6444644, 49.8682281 ], [ 8.6448478, 49.8682775 ], [ 8.6448694, 49.86828 ], [ 8.6452369, 49.8683289 ], [ 8.645355, 49.8683447 ], [ 8.6455716, 49.8683735 ], [ 8.6456616, 49.868385 ], [ 8.6457822, 49.8684016 ] ] } },
{ "type": "Feature", "properties": { "u": 356292222, "v": 608057, "key": 0, "osmid": [ 381976297, 1103575781, 1103575782 ], "highway": "primary", "maxspeed": "50", "name": "Hügelstraße", "oneway": false, "reversed": "False", "length": 106.57810051672655, "lanes": "4", "width": null, "ref": null, "highway_raw": "primary", "cycleway_raw": null, "cycleway": null, "unprotected": true }, "geometry": { "type": "LineString", "coordinates": [ [ 8.6464768, 49.8685023 ], [ 8.6470538, 49.8685907 ], [ 8.6474771, 49.8686532 ], [ 8.6475676, 49.8686666 ], [ 8.6476564, 49.8686798 ], [ 8.6479251, 49.8687197 ] ] } },
{ "type": "Feature", "properties": { "u": 356292222, "v": 531705, "key": 0, "osmid": "1429096407", "highway": "primary", "maxspeed": "50", "name": "Hügelstraße", "oneway": false, "reversed": "True", "length": 32.566833935135605, "lanes": "3", "width": null, "ref": null, "highway_raw": "primary", "cycleway_raw": null, "cycleway": null, "unprotected": true }, "geometry": { "type": "LineString", "coordinates": [ [ 8.6464768, 49.8685023 ], [ 8.64621, 49.8684631 ], [ 8.6461496, 49.8684552 ], [ 8.6460717, 49.8684428 ], [ 8.6460338, 49.8684372 ] ] } }
]
}
