{
"type": "FeatureCollection",
"name": "dop20_32_473_5521_1_he_medium",
"crs": { "type": "name", "properties": { "name": "urn:ogc:def:crs:OGC:1.3:CRS84" } },
"features": [
{ "type": "Feature", "properties": { "u": 11108383590, "v": 11108383592, "key": 0, "osmid": 1197172945, "highway": "residential", "name": "Mondstraße", "oneway": false, "reversed": true, "length": 88.270185473628402, "highway_raw": "residential", "cycleway_raw": null, "cycleway": null, "unprotected": false }, "geometry": { "type": "LineString", "coordinates": [ [ 8.6561852, 49.8452679 ], [ 8.6560022, 49.8452449 ], [ 8.6549688, 49.8453432 ] ] } },
{ "type": "Feature", "properties": { "u": 11108383592, "v": 11108383590, "key": 0, "osmid": 1197172945, "highway": "residential", "name": "Mondstraße", "oneway": false, "reversed": false, "length": 88.270185473628402, "highway_raw": "residential", "cycleway_raw": null, "cycleway": null, "unprotected": false }, "geometry": { "type": "LineString", "coordinates": [ [ 8.6549688, 49.8453432 ], [ 8.6560022, 49.8452449 ], [ 8.6561852, 49.8452679 ] ] } },
{ "type": "Feature", "properties": { "u": 11108383592, "v": 11892233082, "key": 0, "osmid": 1197172946, "highway": "residential", "name": "Sonnenstraße", "oneway": false, "reversed": false, "length": 96.252997347156239, "highway_raw": "residential", "cycleway_raw": null, "cycleway": null, "unprotected": false }, "geometry": { "type": "LineString", "coordinates": [ [ 8.6549688, 49.8453432 ], [ 8.6550379, 49.845532 ], [ 8.6552089, 49.8459382 ], [ 8.6551916, 49.8459735 ], [ 8.6551537, 49.8459943 ], [ 8.6548832, 49.8460449 ] ] } },
{ "type": "Feature", "properties": { "u": 11108389547, "v": 11108389551, "key": 0, "osmid": 1197172955, "highway": "residential", "name": "Kalksteinstraße", "oneway": false, "reversed": false, "length": 67.687752774596817, "highway_raw": "residential", "cycleway_raw": null, "cycleway": null, "unprotected": false }, "geometry": { "type": "LineString", "coordinates": [ [ 8.6564833, 49.8472973 ], [ 8.6559965, 49.8473891 ], [ 8.6555772, 49.8474681 ] ] } },
{ "type": "Feature", "properties": { "u": 11108389547, "v": 11108389553, "key": 0, "osmid": 1197172955, "highway": "residential", "name": "Kalksteinstraße", "oneway": false, "reversed": true, "length": 66.446704776234782, "highway_raw": "residential", "cycleway_raw": null, "cycleway": null, "unprotected": false }, "geometry": { "type": "LineString", "coordinates": [ [ 8.6564833, 49.8472973 ], [ 8.6568841, 49.8472238 ], [ 8.6573738, 49.8471319 ] ] } },
{ "type": "Feature", "properties": { "u": 11108389551, "v": 11108389562, "key": 0, "osmid": 1443887497, "highway": "residential", "name": "Tonsteinstraße", "oneway": false, "reversed": true, "length": 99.996688937952626, "highway_raw": "residential", "cycleway_raw": null, "cycleway": null, "unprotected": false }, "geometry": { "type": "LineString", "coordinates": [ [ 8.6555772, 49.8474681 ], [ 8.6559678, 49.8483314 ] ] } },
{ "type": "Feature", "properties": { "u": 11108389551, "v": 11108389547, "key": 0, "osmid": 1197172955, "highway": "residential", "name": "Kalksteinstraße", "oneway": false, "reversed": true, "length": 67.687752774596817, "highway_raw": "residential", "cycleway_raw": null, "cycleway": null, "unprotected": false }, "geometry": { "type": "LineString", "coordinates": [ [ 8.6555772, 49.8474681 ], [ 8.6559965, 49.8473891 ], [ 8.6564833, 49.8472973 ] ] } },
{ "type": "Feature", "properties": { "u": 11108389551, "v": 11892233082, "key": 0, "osmid": 1281280031, "highway": "residential", "name": null, "oneway": false, "reversed": false, "length": 212.25743272952229, "highway_raw": "residential", "cycleway_raw": null, "cycleway": null, "unprotected": false }, "geometry": { "type": "LineString", "coordinates": [ [ 8.6555772, 49.8474681 ], [ 8.655482, 49.8472614 ], [ 8.6554575, 49.8472206 ], [ 8.6554154, 49.8472015 ], [ 8.6553318, 49.8471952 ], [ 8.6552203, 49.8472073 ], [ 8.6551656, 49.8472164 ], [ 8.6550935, 49.847226 ], [ 8.6549812, 49.8472291 ], [ 8.654899, 49.847213 ], [ 8.6548004, 49.8471454 ], [ 8.6547235, 49.8470468 ], [ 8.6545786, 49.8467141 ], [ 8.6545523, 49.8466349 ], [ 8.6545621, 49.8465769 ], [ 8.6547866, 49.8463513 ], [ 8.6548736, 49.8462123 ], [ 8.6549063, 49.8461013 ], [ 8.6548832, 49.8460449 ] ] } },
{ "type": "Feature", "properties": { "u": 11108389552, "v": 11108389553, "key": 0, "osmid": 1197172955, "highway": "residential", "name": "Kalksteinstraße", "oneway": false, "reversed": false, "length": 100.19685526832269, "highway_raw": "residential", "cycleway_raw": null, "cycleway": null, "unprotected": false }, "geometry": { "type": "LineString", "coordinates": [ [ 8.6587165, 49.8468825 ], [ 8.658421, 49.8469374 ], [ 8.6577755, 49.8470522 ], [ 8.6573738, 49.8471319 ] ] } },
{ "type": "Feature", "properties": { "u": 11108389553, "v": 11108389547, "key": 0, "osmid": 1197172955, "highway": "residential", "name": "Kalksteinstraße", "oneway": false, "reversed": false, "length": 66.446704776234782, "highway_raw": "residential", "cycleway_raw": null, "cycleway": null, "unprotected": false }, "geometry": { "type": "LineString", "coordinates": [ [ 8.6573738, 49.8471319 ], [ 8.6568841, 49.8472238 ], [ 8.6564833, 49.8472973 ] ] } },
{ "type": "Feature", "properties": { "u": 11108389553, "v": 11108389552, "key": 0, "osmid": 1197172955, "highway": "residential", "name": "Kalksteinstraße", "oneway": false, "reversed": true, "length": 100.19685526832269, "highway_raw": "residential", "cycleway_raw": null, "cycleway": null, "unprotected": false }, "geometry": { "type": "LineString", "coordinates": [ [ 8.6573738, 49.8471319 ], [ 8.6577755, 49.8470522 ], [ 8.658421, 49.8469374 ], [ 8.6587165, 49.8468825 ] ] } },
{ "type": "Feature", "properties": { "u": 11108389553, "v": 11108389554, "key": 0, "osmid": 1197172956, "highway": "residential", "name": "Schieferstraße", "oneway": false, "reversed": true, "length": 149.35170717828913, "highway_raw": "residential", "cycleway_raw": null, "cycleway": null, "unprotected": false }, "geometry": { "type": "LineString", "coordinates": [ [ 8.6573738, 49.8471319 ], [ 8.6577112, 49.8478793 ], [ 8.6579561, 49.8484215 ] ] } },
{ "type": "Feature", "properties": { "u": 11108389554, "v": 11108389553, "key": 0, "osmid": 1197172956, "highway": "residential", "name": "Schieferstraße", "oneway": false, "reversed": false, "length": 149.35170717828913, "highway_raw": "residential", "cycleway_raw": null, "cycleway": null, "unprotected": false }, "geometry": { "type": "LineString", "coordinates": [ [ 8.6579561, 49.8484215 ], [ 8.6577112, 49.8478793 ], [ 8.6573738, 49.8471319 ] ] } },
{ "type": "Feature", "properties": { "u": 11108389554, "v": 11108389560, "key": 0, "osmid": 1197172958, "highway": "residential", "name": "Buntsandsteinstraße", "oneway": false, "reversed": false, "length": 44.21443331370206, "highway_raw": "residential", "cycleway_raw": null, "cycleway": null, "unprotected": false }, "geometry": { "type": "LineString", "coordinates": [ [ 8.6579561, 49.8484215 ], [ 8.6579839, 49.8484162 ], [ 8.6585477, 49.8483093 ] ] } },
{ "type": "Feature", "properties": { "u": 11108389560, "v": 11108389554, "key": 0, "osmid": 1197172958, "highway": "residential", "name": "Buntsandsteinstraße", "oneway": false, "reversed": true, "length": 44.21443331370206, "highway_raw": "residential", "cycleway_raw": null, "cycleway": null, "unprotected": false }, "geometry": { "type": "LineString", "coordinates": [ [ 8.6585477, 49.8483093 ], [ 8.6579839, 49.8484162 ], [ 8.6579561, 49.8484215 ] ] } },
{ "type": "Feature", "properties": { "u": 11108389562, "v": 11108389551, "key": 0, "osmid": 1443887497, "highway": "residential", "name": "Tonsteinstraße", "oneway": false, "reversed": false, "length": 99.996688937952626, "highway_raw": "residential", "cycleway_raw": null, "cycleway": null, "unprotected": false }, "geometry": { "type": "LineString", "coordinates": [ [ 8.6559678, 49.8483314 ], [ 8.6555772, 49.8474681 ] ] } },
{ "type": "Feature", "properties": { "u": 11108389562, "v": 11108389564, "key": 0, "osmid": 1472061172, "highway": "residential", "name": "Granitstraße", "oneway": false, "reversed": true, "length": 66.245187786435537, "highway_raw": "residential", "cycleway_raw": null, "cycleway": null, "unprotected": false }, "geometry": { "type": "LineString", "coordinates": [ [ 8.6559678, 49.8483314 ], [ 8.6556195, 49.8483989 ], [ 8.6551889, 49.8484823 ], [ 8.6550824, 49.8485016 ] ] } },
{ "type": "Feature", "properties": { "u": 11108389564, "v": 11108389562, "key": 0, "osmid": 1472061172, "highway": "residential", "name": "Granitstraße", "oneway": false, "reversed": false, "length": 66.245187786435537, "highway_raw": "residential", "cycleway_raw": null, "cycleway": null, "unprotected": false }, "geometry": { "type": "LineString", "coordinates": [ [ 8.6550824, 49.8485016 ], [ 8.6551889, 49.8484823 ], [ 8.6556195, 49.8483989 ], [ 8.6559678, 49.8483314 ] ] } },
{ "type": "Feature", "properties": { "u": 11892233082, "v": 11108383592, "key": 0, "osmid": 1197172946, "highway": "residential", "name": "Sonnenstraße", "oneway": false, "reversed": true, "length": 96.252997347156224, "highway_raw": "residential", "cycleway_raw": null, "cycleway": null, "unprotected": false }, "geometry": { "type": "LineString", "coordinates": [ [ 8.6548832, 49.8460449 ], [ 8.6551537, 49.8459943 ], [ 8.6551916, 49.8459735 ], [ 8.6552089, 49.8459382 ], [ 8.6550379, 49.845532 ], [ 8.6549688, 49.8453432 ] ] } },
{ "type": "Feature", "properties": { "u": 11892233082, "v": 11108389551, "key": 0, "osmid": 1281280031, "highway": "residential", "name": null, "oneway": false, "reversed": true, "length": 212.25743272952229, "highway_raw": "residential", "cycleway_raw": null, "cycleway": null, "unprotected": false }, "geometry": { "type": "LineString", "coordinates": [ [ 8.6548832, 49.8460449 ], [ 8.6549063, 49.8461013 ], [ 8.6548736, 49.8462123 ], [ 8.6547866, 49.8463513 ], [ 8.6545621, 49.8465769 ], [ 8.6545523, 49.8466349 ], [ 8.6545786, 49.8467141 ], [ 8.6547235, 49.8470468 ], [ 8.6548004, 49.8471454 ], [ 8.654899, 49.847213 ], [ 8.6549812, 49.8472291 ], [ 8.6550935, 49.847226 ], [ 8.6551656, 49.8472164 ], [ 8.6552203, 49.8472073 ], [ 8.6553318, 49.8471952 ], [ 8.6554154, 49.8472015 ], [ 8.6554575, 49.8472206 ], [ 8.655482, 49.8472614 ], [ 8.6555772, 49.8474681 ] ] } }
]
}
